STARLINK-5842           
1 56491U 23064AV  26068.49687414 -.00000328  00000+0 -19689-4 0  9996
2 56491  69.9993 104.9449 0002973 261.9443  98.1379 14.98329375156205
HAWK-9B                 
1 59450U 24066J   26068.43130858  .00002608  00000+0  23214-3 0  9995
2 59450  45.6215  73.5456 0003751 229.3903 130.6652 14.98778240104864
